GLOBALSTAR M084         
1 38040U 11080A   25265.78836338 -.00000084  00000+0  11045-3 0  9997
2 38040  51.9991 111.3408 0000505  92.1099 346.6585 12.62269010634996
GLOBALSTAR M080         
1 38041U 11080B   25265.82481086 -.00000070  00000+0  18983-3 0  9992
2 38041  52.0044 112.8564 0001140  61.4857 312.2260 12.62269267635123
GLOBALSTAR M082         
1 38042U 11080C   25265.76085220 -.00000107  00000+0 -20570-4 0  9994
2 38042  52.0073  68.5199 0001116  77.4860 296.3049 12.62268750635821
GLOBALSTAR M092         
1 38043U 11080D   25265.90787135 -.00000072  00000+0  17495-3 0  9996
2 38043  52.0073 158.4580 0000663  68.2925  12.9874 12.62265991634293
GLOBALSTAR M090         
1 38044U 11080E   25265.70944634 -.00000111  00000+0 -41346-4 0  9992
2 38044  52.0125  62.5454 0000961  95.5805 284.0519 12.62262473635930
GLOBALSTAR M086         
1 38045U 11080F   25265.73346464 -.00000087  00000+0  94120-4 0  9992
2 38045  51.9900  62.8372 0001324 144.7456 228.8562 12.62277347635889
GLOBALSTAR M097         
1 39072U 13005A   25265.52021104 -.00000090  00000+0  76901-4 0  9991
2 39072  52.0072 338.1407 0000677 111.1688 248.9251 12.62265639583101
GLOBALSTAR M093         
1 39073U 13005B   25265.49417413 -.00000080  00000+0  13181-3 0  9999
2 39073  52.0127 331.4652 0000859 111.6311 248.4648 12.62264461583052
